satname,norad_id,inclination_deg,eccentricity,mean_motion_rev_per_day,perigee_km,apogee_km,l1,l2
STARLINK-1278,45408,53.044,0.0003408,15.61727893,380.3616367097784,384.9697998425563,1 45408U 20019BA  26097.91668981  .00082421  00000+0  93311-3 0  9991,2 45408  53.0440 348.3297 0003408 171.0770 313.6003 15.61727893  5935
STARLINK-1296,45412,53.1593,0.000274,15.33038988,464.87594770224587,468.6269465712776,1 45412U 20019BE  26097.86947397  .00059724  00000+0  18421-2 0  9999,2 45412  53.1593 353.4858 0002740 170.6053 189.5001 15.33038988334445
STARLINK-1309,45414,53.0651,0.0006389,15.61005528,380.4304837370346,389.07210239791675,1 45414U 20019BG  26097.91668981  .00076254  00000+0  88826-3 0  9990,2 45414  53.0651 341.7987 0006389 150.4685  21.1926 15.61005528  5889
STARLINK-1316,45415,53.1595,0.0002256,15.33097179,465.03407295298257,468.1224084695923,1 45415U 20019BH  26097.84933461  .00063840  00000+0  19636-2 0  9990,2 45415  53.1595 353.6291 0002256 193.5565 166.5377 15.33097179334467
STARLINK-1286,45417,53.0499,0.0003996,15.53348392,404.2465794943346,409.6692273411454,1 45417U 20019BK  26097.00526291  .00042382  00000+0  66318-3 0  9997,2 45417  53.0499 354.4398 0003996 138.0416 222.0900 15.53348392334625
STARLINK-1308,45419,53.0522,0.0006407,15.56493078,393.47455270886076,402.15725876227043,1 45419U 20019BM  26097.91668981  .00063927  00000+0  88538-3 0  9998,2 45419  53.0522  11.1699 0006407 142.7064 348.0762 15.56493078  5979
STARLINK-1329,45531,53.0455,4.71e-05,15.66437889,368.78878010970584,369.42437045449697,1 45531U 20025A   26097.81885626  .00053192  00000+0  50392-3 0  9996,2 45531  53.0455 299.0370 0000471 286.1391  73.9572 15.66437889330000
STARLINK-1338,45532,53.0475,0.0002441,15.60205104,385.412729612789,388.71550079723147,1 45532U 20025B   26097.91668981  .00117765  00000+0  14049-2 0  9996,2 45532  53.0475 302.9400 0002441 132.7495 303.6442 15.60205104  5983
STARLINK-1350,45535,53.072,0.0001459,15.36913612,454.2454497025192,456.239429823042,1 45535U 20025E   26097.73618215  .00011780  00000+0  33171-3 0  9992,2 45535  53.0720 256.6501 0001459 118.0262 242.0888 15.36913612330628
STARLINK-1362,45538,53.1617,0.0002121,15.3134812,470.336262715221,473.2420013804349,1 45538U 20025H   26097.77901582 -.00142933  00000+0 -47340-2 0  9990,2 45538  53.1617 325.8050 0002121  98.9738 261.1503 15.31348120329632
STARLINK-1368,45540,53.1587,0.0001411,15.32288091,468.0213580038535,469.9536165341606,1 45540U 20025K   26097.83334490 -.00007450  00000+0 -22428-3 0  9993,2 45540  53.1587 325.9346 0001411  88.9135 130.1685 15.32288091  5842
STARLINK-1371,45542,53.0504,0.0001411,15.52281128,409.10977273417575,411.02540406902244,1 45542U 20025M   26097.77251355  .00098976  00000+0  15883-2 0  9993,2 45542  53.0504 309.9726 0001411 207.5433 152.5502 15.52281128329847
STARLINK-1372,45543,53.1602,0.0001162,15.32409691,467.8296660150454,469.4208535642192,1 45543U 20025N   26097.83334490 -.00010773  00000+0 -32843-3 0  9990,2 45543  53.1602 325.6294 0001162  98.6754 249.0910 15.32409691  5897
STARLINK-1373,45544,53.049,0.0002731,15.56404132,396.2234765972253,399.9246430781086,1 45544U 20025P   26097.84249118  .00107249  00000+0  14786-2 0  9992,2 45544  53.0490 308.3662 0002731 146.1545 213.9641 15.56404132329878
STARLINK-1327,45555,53.0455,0.0004977,15.5913025,386.80442653470254,393.5416023230646,1 45555U 20025AA  26097.80013858  .00078586  00000+0  98313-3 0  9990,2 45555  53.0455 285.5185 0004977 180.0122 180.0891 15.59130250330186
STARLINK-1356,45564,53.0502,0.0003629,15.49693918,415.1545672627699,420.08692823608635,1 45564U 20025AK  26097.86553925  .00092266  00000+0  16249-2 0  9998,2 45564  53.0502 294.4662 0003629 161.3830 198.7311 15.49693918330063
STARLINK-1357,45565,53.0478,0.0004598,15.62185334,378.2378393533472,384.45385978181,1 45565U 20025AL  26097.83334490  .00153546  00000+0  16876-2 0  9995,2 45565  53.0478 256.3401 0004598 268.6249 138.0424 15.62185334  5979
STARLINK-1361,45567,53.0485,0.0004721,15.52808989,405.3251305642125,411.7331007105977,1 45567U 20025AN  26097.83109117  .00105191  00000+0  16540-2 0  9994,2 45567  53.0485 294.0389 0004721 134.4707 225.6689 15.52808989330075
STARLINK-1363,45568,53.0376,0.0001813,15.85196426,314.5581003060406,316.9853116028189,1 45568U 20025AP  26097.83334490  .00230979  00000+0  93248-3 0  9993,2 45568  53.0376 251.3308 0001813 192.8404  88.2448 15.85196426  5935
STARLINK-1366,45569,53.0384,0.0002245,15.83519854,318.99187081184755,321.9995569003686,1 45569U 20025AQ  26097.83334490  .00206882  00000+0  90747-3 0  9991,2 45569  53.0384 252.3717 0002245 177.7438 249.0990 15.83519854  6043
STARLINK-1376,45570,53.1603,0.0001237,15.33032566,465.92384792646135,467.61727805754526,1 45570U 20025AR  26097.82826507  .00058210  00000+0  17965-2 0  9997,2 45570  53.1603 302.2291 0001237 238.1895 121.8986 15.33032566329967
STARLINK-1320,45572,53.0456,0.000351,15.74134947,344.7333613833771,349.4544734874171,1 45572U 20025AT  26097.83334490  .00067492  00000+0  46235-3 0  9990,2 45572  53.0456 201.3935 0003510 105.3841   6.5850 15.74134947  6018
STARLINK-1321,45573,53.0466,0.0002292,15.53919906,403.7393853774338,406.8489102155836,1 45573U 20025AU  26097.83334490  .00071680  00000+0  10898-2 0  9990,2 45573  53.0466 278.4435 0002292 214.3678 215.1146 15.53919906  5956
STARLINK-1331,45578,53.0507,0.0004596,15.53611689,403.07320574929963,409.30936030705834,1 45578U 20025AZ  26097.83334490  .00107778  00000+0  16455-2 0  9998,2 45578  53.0507 285.1589 0004596 214.0798 160.6889 15.53611689  5855
STARLINK-1333,45580,53.1606,0.0001503,15.30220245,474.1245724341434,476.18467189576677,1 45580U 20025BB  26097.82375890  .00008451  00000+0  29694-3 0  9997,2 45580  53.1606 302.4849 0001503  84.4353 275.6819 15.30220245329962
STARLINK-1335,45581,53.1562,0.0001156,15.29604241,476.20202254053584,477.78692893772677,1 45581U 20025BC  26097.84915229  .00033427  00000+0  11567-2 0  9996,2 45581  53.1562 299.7654 0001156  79.7078 280.4052 15.29604241329997
STARLINK-1337,45582,53.0505,0.000462,15.64429498,371.7601195949219,377.9999073153531,1 45582U 20025BD  26097.83334490 -.00025620  00000+0 -25697-3 0  9999,2 45582  53.0505 279.6338 0004620 229.2907 210.5942 15.64429498  5825
STARLINK-1347,45586,53.041,0.0001665,15.60571914,384.8777442028213,387.1302031470541,1 45586U 20025BH  26097.83334490  .00198410  00000+0  23066-2 0  9996,2 45586  53.0410 248.1243 0001665 255.3019 170.7524 15.60571914  5976
STARLINK-1364,45589,53.0477,0.0005487,15.55091687,398.1659209861227,405.6063183576498,1 45589U 20025BL  26097.83334490  .00116365  00000+0  16806-2 0  9992,2 45589  53.0477 282.9083 0005487 181.7735  47.6672 15.55091687  5955
STARLINK-1365,45590,53.0508,0.0003919,15.5027701,413.25403240234573,418.5792116312823,1 45590U 20025BM  26097.83334490  .00073210  00000+0  12677-2 0  9997,2 45590  53.0508 314.2029 0003919 166.6485  55.2837 15.50277010  5941
STARLINK-1443,45660,53.1376,0.0001988,15.27932189,480.6309238616759,483.3585122327722,1 45660U 20035D   26097.85169336  .00049040  00000+0  17761-2 0  9996,2 45660  53.1376 290.1564 0001988 180.7882 179.3115 15.27932189323210
STARLINK-1446,45663,53.0231,0.0002616,15.44203996,431.9359957433071,435.49995826727627,1 45663U 20035G   26097.49545060  .00021137  00000+0  46111-3 0  9990,2 45663  53.0231 222.4150 0002616  13.1898 346.9175 15.44203996324121
STARLINK-1448,45665,53.0476,0.0005475,15.59068925,386.6447511845845,394.0562449949921,1 45665U 20035J   26097.83334490  .00167893  00000+0  20747-2 0  9999,2 45665  53.0476 271.7509 0005475 213.2051 206.0870 15.59068925  5962
STARLINK-1451,45668,53.0527,0.0001148,15.11684446,530.2695152127462,531.8558674618771,1 45668U 20035M   26097.85364255  .00029783  00000+0  17399-2 0  9990,2 45668  53.0527 294.2341 0001148 108.8326 251.2789 15.11684446323158
STARLINK-1452,45669,53.0301,0.0002961,15.49452769,416.3134017480852,420.3382670386127,1 45669U 20035N   26097.68207351  .00078313  00000+0  13947-2 0  9993,2 45669  53.0301 243.1178 0002961 165.7553 194.3538 15.49452769323856
STARLINK-1453,45670,53.0428,2.23e-05,15.59523583,388.88401892696857,389.18583479490644,1 45670U 20035P   26097.83334490  .00214094  00000+0  25848-2 0  9998,2 45670  53.0428 232.2653 0000223  67.2431  75.9974 15.59523583  5966
STARLINK-1454,45671,53.0476,0.0004899,15.57580167,391.3447632240832,397.9807524268008,1 45671U 20035Q   26097.83334490  .00148113  00000+0  19415-2 0  9990,2 45671  53.0476 272.1598 0004899 195.7064 242.9151 15.57580167  5965
STARLINK-1456,45673,53.0465,0.0003736,15.55482409,398.21809593582384,403.28328081657855,1 45673U 20035S   26097.83334490  .00133885  00000+0  19014-2 0  9997,2 45673  53.0465 265.9764 0003736 279.8051   2.4269 15.55482409  5966
STARLINK-1457,45674,53.0414,0.0002127,15.88856692,304.0655955183511,306.908809254046,1 45674U 20035T   26097.83334490  .00281917  00000+0  94514-3 0  9997,2 45674  53.0414 235.5003 0002127 260.0973 102.3409 15.88856692  5992
STARLINK-1458,45675,53.0503,0.0004847,15.47512193,420.70947897978294,427.30347686728146,1 45675U 20035U   26097.72394080  .00105803  00000+0  20059-2 0  9998,2 45675  53.0503 277.2421 0004847 205.4526 154.6243 15.47512193323345
STARLINK-1460,45676,53.16,0.0001305,15.30184455,474.36711587804075,476.1558528824653,1 45676U 20035V   26097.79476031 -.00001016  00000+0 -22179-4 0  9993,2 45676  53.1600 289.7579 0001305  78.7580 281.3567 15.30184455323170
STARLINK-1392,45677,53.1559,0.0001065,15.30487615,473.62664680954094,475.0862279116982,1 45677U 20035W   26097.86805000  .00335767  00000+0  10750-1 0  9994,2 45677  53.1559 289.3853 0001065  90.2157 269.8966 15.30487615323221
STARLINK-1394,45679,53.0456,0.0005085,15.55518655,397.19837138647745,404.09239306920426,1 45679U 20035Y   26097.83334490  .00166466  00000+0  23491-2 0  9998,2 45679  53.0456 256.1981 0005085 282.0082  17.5939 15.55518655  5968
